#dP2020  6 13  0  0  0.00000000      96 __u+U ITR00 FIT  IAC
## 2109 518400.00000000   900.00000000 59013 0.0000000000000
+  116   C06C07C08C10C11C12C13C14C16C19C20C21C22C23C24C25C26
+        C27C28C29C30C32C33C34C35C36C37C38C39C40C43C44C45C46
+        E01E02E03E04E05E07E08E09E11E12E13E14E15E18E19E21E24
+        E25E26E27E30E31E33E36G01G02G03G04G05G06G07G08G09G10
+        G11G12G13G14G15G16G17G18G19G20G21G22G23G24G25G26G27
+        G28G29G30G31G32J01J02J03R01R02R03R04R05R07R08R09R11
+        R12R13R14R15R16R17R18R19R20R21R22R23R24R26  0  0  0
++         9  9  8  8  7  8 11  8  7  7  7  6  8  6  8  7  6
++         7  8  8  7  8  7  8  6  6  6  5  6 17 13  9  8 10
++         6  6  6  6  7  6  6  6  6  6  6  6  5  5  5  5  6
++         6  6  5  6  6  6  7  6  7  6  5  7  4  7  6  6  7
++         6  7  6  8  7  6  6  7  6  7  6  7  0  6  5  6  5
++         6  8  6  8  7 19 16 16  6  7  6  6  7  6  6  7  5
++         7  6  6  7  6  6  6  6  8  6 10  7  5  8  0  0  0
%c M  cc GPS ccc cccc cccc cccc cccc ccccc ccccc ccccc ccccc
%c cc cc ccc ccc cccc cccc cccc cccc ccccc ccccc ccccc ccccc
%f  0.0000000  0.000000000  0.00000000000  0.000000000000000
%f  0.0000000  0.000000000  0.00000000000  0.000000000000000
%i    0    0    0    0      0      0      0      0         0
%i    0    0    0    0      0      0      0      0         0
/* INFORMATION & ANALYSIS CENTER (IAC)      ULTRA-RAPID DATA
/* S/V CLOCKS ARE ALIGNED TO GNSS TIME                      
/* G:C1WC2W R:C1PC2P E:C1XC5X C:C2IC6I J:C1CC2S             
/* PCV:IGS14_2101 OL/AL:FES2004  NONE     YN ORB:CoN CLK:CoN
*  2020 06 13  6 15  0.00000000
PC06 -18524.439627  20596.561441 -31502.461789    752.616231
PC07 -20726.584608  36316.932721   2695.826217     50.791422
PC08  -5083.433769  30601.892083  28807.220005   -308.599169
PC10  -8529.458513  37778.397955  16325.138076   -263.729441
PC11  -3984.525710  14896.059531  23312.515962   -425.261098
PC12 -21473.023063   3859.902640  17411.627797    399.638159
PC13   5442.147919  38187.946588  17415.129397    487.859640
PC14 -12935.069823  21506.840972 -12104.608292    526.499309
PC16 -14839.359878  21559.296315 -33016.975636   -618.867171
PC19   4039.703338 -20238.460408  18824.748302    442.571528
PC20  19209.834506 -19770.895772   4482.272216   -853.851234
PC21 -23492.339911   7384.529340  13126.079822   -521.387138
PC22 -13778.649202  -9004.001228  22540.712016   -786.540209
PC23  13437.407686  19575.092124  14663.476708   -854.884705
PC24  -9806.609717  19296.473695 -17624.374267   -793.197949
PC25   3594.331894  27628.911193  -1713.172265   -650.107030
PC26 -16180.207272    985.530070 -22716.815260    716.296720
PC27  25907.387363   3125.390026  -9881.972416    346.626405
PC28  22345.829551  14820.712770   7741.550267   -215.095059
PC29  -6386.758550 -17569.101124 -20730.022300    241.760058
PC30  14210.008299 -10696.105668 -21504.299468    331.251910
PC32  23455.687639  -7629.649824 -13045.990212   -879.560953
PC33  -3980.824920  20267.666901 -18742.567381   -814.535897
PC34 -13835.282234  10945.680562  21617.837520   -806.524793
PC35 -22735.534719 -14159.778945  -7900.419904 999999.999999
PC36  -2770.901316 -27705.587569   1973.157247   -845.110648
PC37  16289.129538    199.668213  22678.851134   -850.748152
PC38  -3352.492230  33818.326158  25023.787598     83.200709
PC39 -11076.524052  22998.209631 -33564.522811 999999.999999
PC40 -18006.747796  35746.171782  12950.233412 999999.999999
PC43   5902.117821  17660.180626  20770.372117   -236.351266
PC44 -26091.634906  -2413.688006   9640.534155 999999.999999
PC45 -13413.519287 -19556.653933 -14692.541742 999999.999999
PC46   9385.118620 -19703.889363  17387.330624    787.305186
PE01  13321.752645  11236.637036  23924.817745   -876.669999
PE02 -13367.710035 -11134.406153 -23947.896668    140.077072
PE03 -23634.143474  -6379.859609  16636.004011   -309.279111
PE04  28675.187739  -7337.839944    443.847950   -544.868301
PE05  -4676.719995 -16499.554209  24134.973874   -372.046949
PE07 -16864.102876  16900.570709 -17476.311449   -395.005649
PE08 -28582.156306   7639.211505   -628.210783   6164.505727
PE09  16699.581811 -16945.808539  17633.781843   6030.133995
PE11   5557.840654 -16737.207242 -23786.556469   3429.625522
PE12  20463.929109    830.594627 -21365.377297   5757.698825
PE13  -5676.745768  16516.655330  23897.460888    401.556313
PE14  20740.862110 -14352.484235 -19555.804820  -1047.800878
PE15 -20334.368709   -616.119952  21506.015636    863.687465
PE18 -21172.641995   6421.451827  10386.241423  -1148.679634
PE19  22142.918357   7626.648072 -18091.136621      1.835993
PE21   1333.284752  26546.350371  13019.057546   -604.301644
PE24  11953.998772 -26415.747295   5906.750544   5405.221176
PE25  -1234.070912 -26611.260475 -12903.263987   -512.070822
PE26  12461.461499  24105.109455  11824.312141   3078.823832
PE27 -11672.465891  26602.444804  -5676.927263    199.548761
PE30 -17879.913896  10530.816826 -21119.767871   3830.212236
PE31  17765.141862 -11032.907020  20957.161548   -472.853255
PE33  23050.621419  17393.328356  -6480.368203   -466.156071
PE36 -12325.513577 -23963.914284 -12255.869562    547.625955
PG01 -17905.225750  -8188.832959  17762.627123      7.213890
PG02  13683.382220  22790.163131   1096.471050   -471.334230
PG03 -17732.692766   3349.078981  19388.355439   -207.236549
PG04 -26512.077195   -168.932666  -1853.263756   -101.821070
PG05   7226.417374  16053.027520 -19968.756741    -14.551325
PG06   4794.846457  23793.644738  10781.456819   -287.852295
PG07 -11261.480567  10784.984441 -21135.217013   -303.309741
PG08 -23967.626960  -6758.949045  -9586.437530    -37.369242
PG09 -21991.408154   8559.519437 -12254.691866   -235.367428
PG10  10838.493227 -23728.500909   4347.284561   -369.825217
PG11 -23246.064731 -11156.247530   5142.511729   -250.178864
PG12  17609.241717  -2164.884864  19478.013768    106.670424
PG13  17743.437658  13120.530797 -14967.272927     17.906014
PG14  -3166.651645 -15570.012774  21658.352386     -6.243194
PG15  24782.311745   4826.059356  -9152.628347   -224.610154
PG16  -7173.407997 -14390.972256 -21270.355619   -169.846773
PG17  -7184.099439  13985.607790  21821.477508    279.995347
PG18  11157.098426 -10912.058346 -21499.880794    218.669234
PG19   1542.279947  14804.389633  21699.350226   -145.880353
PG20  15248.344584 -20105.451103  -7993.254021    527.524133
PG21   2785.049327 -19023.147452 -17715.582228     10.948256
PG22 -15083.739187  -5409.759870  21387.982496   -778.218756
PG23      0.000000      0.000000      0.000000 999999.999999
PG24  19383.437703   8896.430563  15855.078968    -14.249421
PG25  18703.814949 -12473.311192  13699.550364     12.591064
PG26   1567.701190 -22702.990635 -13542.859753    224.442421
PG27 -15714.988650 -12346.546593 -17805.840145   -319.226023
PG28 -11561.084359  23188.986098   6753.088962    709.091646
PG29  24551.268724  -3985.677484  -9400.096135   -126.715498
PG30  -3400.019667  20300.847680 -16622.230863   -240.614519
PG31  -5235.098091 -24154.438602   9043.939646    -48.796846
PG32   5532.343902 -14947.473527  21311.705055    299.044490
PJ01 -35608.118074  22086.153518    174.662992   -288.088531
PJ02 -21401.785897  30302.111342 -15430.605503     -0.488258
PJ03 -28230.882022  23317.594428  26064.192140     -4.044316
PR01   3516.673812 -13754.255795  21203.546310     62.985956
PR02 -16256.317831  -1843.643503  19635.150768    431.333472
PR03 -23066.775290   9490.601820   5501.827867     16.689357
PR04 -16742.211729  15288.933934 -11657.845659     52.565191
PR05  -1055.037371  12428.157772 -22237.783923     52.214581
PR07  23017.523787  -9825.279741  -4785.320228    -37.526754
PR08  16658.303066 -15355.312431  11767.018049    -52.844580
PR09  10446.417265   8401.978636  21700.926015    137.777475
PR11   5585.753057 -22625.314962  10447.326101    -26.930131
PR12  -2325.372902 -24617.790190  -6201.821467    138.649486
PR13  -9377.568930 -12567.665538 -20136.778651    -39.943574
PR14 -10766.584313   6900.984794 -22055.543948     52.218706
PR15  -5958.521879  22105.609096 -11224.366224    106.788869
PR16   3134.773846  24457.764898   6745.831772     -4.131698
PR17 -19483.155671  -3476.250380  16074.172813    332.675351
PR18  -6820.201809   8072.960723  23225.636291     38.655361
PR19   8786.588953  15519.173361  18232.543817    -97.719274
PR20  21076.058632  14308.899485    708.824966   -414.144370
PR21  19002.893809   2926.292945 -16781.909684   -131.049069
PR22   4306.271244  -9592.722977 -23244.519451  11171.464715
PR23 -14703.522642 -16228.166908 -13097.951145    311.834383
PR24 -21387.928592 -13891.094597     56.013055      2.476497
PR26  19619.833013  15331.899236   5605.061452   -393.044714
EOF
